OBJECT_NAME,OBJECT_ID,EPOCH,MEAN_MOTION,ECCENTRICITY,INCLINATION,RA_OF_ASC_NODE,ARG_OF_PERICENTER,MEAN_ANOMALY,EPHEMERIS_TYPE,CLASSIFICATION_TYPE,NORAD_CAT_ID,ELEMENT_SET_NO,REV_AT_EPOCH,BSTAR,MEAN_MOTION_DOT,MEAN_MOTION_DDOT
GSAT-29,2018-089A,2026-06-30T12:37:35.376960,1.00271899,.00037206,0.0768,260.6398,175.4342,86.9351,0,U,43698,999,2792,0,.96E-6,0
ES'HAIL 2,2018-090A,2026-06-30T07:21:13.895712,1.00272145,.00022292,0.0187,24.8803,108.3216,281.2639,0,U,43700,999,2780,0,.155E-5,0
GEO-KOMPSAT-2A,2018-100A,2026-06-30T12:58:27.141888,1.00270865,.00023634,0.0425,120.2814,331.3523,149.8510,0,U,43823,999,2776,0,-.333E-5,0
GSAT-11,2018-100B,2026-06-30T12:43:04.850400,1.00272257,.00081954,0.0842,266.0676,187.4777,89.8402,0,U,43824,999,2761,0,-.67E-6,0
GSAT-7A,2018-105A,2026-06-29T23:43:38.631648,1.00275031,.00022511,0.0499,94.8214,344.9099,257.0637,0,U,43864,999,2757,0,.36E-6,0
COSMOS 2533,2018-107A,2026-06-30T04:08:39.144192,1.00267992,.00002146,0.0454,102.5608,161.5152,146.3212,0,U,43867,999,2757,0,-.27E-6,0
TJS-3,2018-110A,2026-06-30T16:44:30.791040,1.00268249,.0002742,2.5780,80.3391,77.4202,160.2779,0,U,43874,999,2755,0,-.209E-5,0
ZHONGXING-2D,2019-001A,2026-06-30T12:58:57.094176,1.00271721,.00011647,0.0253,103.6186,255.0929,244.6665,0,U,43920,999,5421,0,-.326E-5,0
HELLAS-SAT 4 & SGS-1,2019-007A,2026-06-30T12:33:05.808096,1.00269587,.0005608,0.0732,128.2699,10.3874,7.2141,0,U,44034,999,2750,0,.163E-5,0
GSAT-31,2019-007B,2026-06-30T12:35:35.567808,1.00272404,.00006013,0.0454,237.5920,154.4202,123.3273,0,U,44035,999,2710,0,.136E-5,0
NUSANTARA SATU,2019-009A,2026-06-29T22:36:38.562336,1.00272058,.00048387,0.0383,132.7231,345.7202,284.7468,0,U,44048,999,2689,0,-.223E-5,0
ZHONGXING-6C,2019-012A,2026-06-30T12:59:04.581600,1.00272561,.00148407,0.0590,65.6128,346.4880,191.7021,0,U,44067,999,2687,0,-.324E-5,0
WGS 10 (USA 291),2019-014A,2026-06-30T10:56:27.193920,1.00271402,.00003683,0.0187,31.0476,47.6417,64.2464,0,U,44071,999,2675,0,.57E-6,0
TIANLIAN 2-01,2019-017A,2026-06-30T12:43:49.778400,1.00272302,.0001362,0.5729,83.1319,45.7179,57.7229,0,U,44076,999,2678,0,-.97E-6,0
ARABSAT-6A,2019-021A,2026-06-29T20:14:34.084320,1.00257209,.00008368,0.0475,4.1096,275.8218,332.0790,0,U,44186,999,2628,0,.164E-5,0
BEIDOU-3 IGSO-1,2019-023A,2026-06-28T11:39:23.419872,1.00288999,.00257468,58.7105,37.5330,224.4783,307.9858,0,U,44204,999,732,0,-.206E-5,0
BEIDOU-2 G8,2019-027A,2026-06-30T13:03:38.538720,1.00267873,.00095909,1.6904,74.5532,284.9376,259.4698,0,U,44231,999,2621,0,-.239E-5,0
YAMAL 601,2019-031A,2026-06-30T12:35:50.544384,1.00272017,.00028048,0.0163,70.4857,24.6827,61.3801,0,U,44307,999,2606,0,.131E-5,0
AT&T T-16,2019-034A,2026-06-30T14:20:21.888384,1.00269159,.00003681,0.0167,60.3335,271.7919,60.7611,0,U,44333,999,2576,0,-.104E-5,0
EUTELSAT 7C,2019-034B,2026-06-30T07:15:59.397984,1.00271556,.00035534,0.0743,181.4248,262.9547,310.0035,0,U,44334,999,696,0,.59E-6,0
BEIDOU-3 IGSO-2,2019-035A,2026-06-29T14:45:57.574944,1.00262956,.00395627,55.2496,158.7537,216.3082,243.4006,0,U,44337,999,2579,0,-.94E-6,0
COSMOS 2539,2019-048A,2026-06-30T09:00:03.540672,1.00273837,.00005081,0.0360,92.1207,342.4150,350.9164,0,U,44457,999,2535,0,.92E-6,0
EDRS-C,2019-049A,2026-06-30T12:27:38.744352,1.00274617,.00012942,0.0182,92.0117,20.1364,135.8510,0,U,44475,999,2534,0,-.251E-5,0
INTELSAT 39 (IS-39),2019-049B,2026-06-29T21:01:31.354176,1.00271871,.00007859,0.0235,15.0802,336.7209,303.4894,0,U,44476,999,2525,0,0,0
AMOS-17,2019-050A,2026-06-30T12:26:33.857088,1.00273646,.00023375,0.0198,333.6632,154.7273,353.8364,0,U,44479,999,2532,0,.12E-5,0
AEHF-5 (USA 292),2019-051A,2026-06-30T11:05:41.308224,1.00270270,.00656485,1.4423,337.2015,359.5058,201.3260,0,U,44481,999,2539,0,-.245E-5,0
EUTELSAT 5 WEST B,2019-067A,2026-06-29T15:48:39.195936,1.00271657,.00034761,0.0630,348.0468,109.6346,52.2130,0,U,44624,999,2456,0,-.31E-6,0
MEV-1,2019-067B,2026-06-16T22:18:40.152960,1.00269616,.00027946,0.8740,268.9828,179.8034,307.2103,0,U,44625,999,6174,0,-.149E-5,0
TJS-4,2019-070A,2026-06-29T21:21:51.291936,1.00272804,.00041731,0.0481,85.7099,321.5802,274.6878,0,U,44637,999,2466,0,-.159E-5,0
TIBA-1,2019-080A,2026-06-30T12:32:05.904384,1.00270756,.00022905,0.0519,12.8283,93.5223,35.7530,0,U,44800,999,2419,0,.166E-5,0
INMARSAT GX5,2019-080B,2026-06-30T12:25:04.000224,1.00274488,.00023135,0.0343,353.6676,103.0728,19.1231,0,U,44801,999,692,0,.86E-6,0
JCSAT-18 (KACIFIC 1),2019-091A,2026-06-30T13:27:00.759744,1.00271267,.0000169,0.0497,208.0373,250.9898,171.3565,0,U,44868,999,2414,0,-.19E-5,0
