GSAT-29                 
1 43698U 18089A   26181.52610390  .00000096  00000+0  00000+0 0  9993
2 43698   0.0768 260.6398 0003720 175.4342  86.9351  1.00271899 27924
ES'HAIL 2               
1 43700U 18090A   26181.30641083  .00000155  00000+0  00000+0 0  9994
2 43700   0.0187  24.8803 0002229 108.3216 281.2639  1.00272145 27803
GEO-KOMPSAT-2A          
1 43823U 18100A   26181.54059192 -.00000333  00000+0  00000+0 0  9991
2 43823   0.0425 120.2814 0002363 331.3523 149.8510  1.00270865 27764
GSAT-11                 
1 43824U 18100B   26181.52991725 -.00000067  00000+0  00000+0 0  9991
2 43824   0.0842 266.0676 0008195 187.4777  89.8402  1.00272257 27617
GSAT-7A                 
1 43864U 18105A   26180.98864157  .00000036  00000+0  00000+0 0  9992
2 43864   0.0499  94.8214 0002251 344.9099 257.0637  1.00275031 27575
COSMOS 2533             
1 43867U 18107A   26181.17267528 -.00000027  00000+0  00000+0 0  9999
2 43867   0.0454 102.5608 0000214 161.5152 146.3212  1.00267992 27579
TJS-3                   
1 43874U 18110A   26181.69757860 -.00000209  00000+0  00000+0 0  9993
2 43874   2.5780  80.3391 0002742  77.4202 160.2779  1.00268249 27554
ZHONGXING-2D            
1 43920U 19001A   26181.54093859 -.00000326  00000+0  00000+0 0  9990
2 43920   0.0253 103.6186 0001164 255.0929 244.6665  1.00271721 54215
HELLAS-SAT 4 & SGS-1    
1 44034U 19007A   26181.52298389  .00000163  00000+0  00000+0 0  9994
2 44034   0.0732 128.2699 0005608  10.3874   7.2141  1.00269587 27505
GSAT-31                 
1 44035U 19007B   26181.52471722  .00000136  00000+0  00000+0 0  9999
2 44035   0.0454 237.5920 0000601 154.4202 123.3273  1.00272404 27105
NUSANTARA SATU          
1 44048U 19009A   26180.94211299 -.00000223  00000+0  00000+0 0  9999
2 44048   0.0383 132.7231 0004838 345.7202 284.7468  1.00272058 26890
ZHONGXING-6C            
1 44067U 19012A   26181.54102525 -.00000324  00000+0  00000+0 0  9994
2 44067   0.0590  65.6128 0014840 346.4880 191.7021  1.00272561 26873
WGS 10 (USA 291)        
1 44071U 19014A   26181.45587030  .00000057  00000+0  00000+0 0  9991
2 44071   0.0187  31.0476 0000368  47.6417  64.2464  1.00271402 26754
TIANLIAN 2-01           
1 44076U 19017A   26181.53043725 -.00000097  00000+0  00000+0 0  9991
2 44076   0.5729  83.1319 0001362  45.7179  57.7229  1.00272302 26788
ARABSAT-6A              
1 44186U 19021A   26180.84345005  .00000164  00000+0  00000+0 0  9991
2 44186   0.0475   4.1096 0000836 275.8218 332.0790  1.00257209 26289
BEIDOU-3 IGSO-1         
1 44204U 19023A   26179.48568773 -.00000206  00000+0  00000+0 0  9999
2 44204  58.7105  37.5330 0025746 224.4783 307.9858  1.00288999  7325
BEIDOU-2 G8             
1 44231U 19027A   26181.54419605 -.00000239  00000+0  00000+0 0  9998
2 44231   1.6904  74.5532 0009590 284.9376 259.4698  1.00267873 26212
YAMAL 601               
1 44307U 19031A   26181.52489056  .00000131  00000+0  00000+0 0  9992
2 44307   0.0163  70.4857 0002804  24.6827  61.3801  1.00272017 26067
AT&T T-16               
1 44333U 19034A   26181.59747556 -.00000104  00000+0  00000+0 0  9994
2 44333   0.0167  60.3335 0000368 271.7919  60.7611  1.00269159 25760
EUTELSAT 7C             
1 44334U 19034B   26181.30277081  .00000059  00000+0  00000+0 0  9993
2 44334   0.0743 181.4248 0003553 262.9547 310.0035  1.00271556  6963
BEIDOU-3 IGSO-2         
1 44337U 19035A   26180.61524971 -.00000094  00000+0  00000+0 0  9993
2 44337  55.2496 158.7537 0039562 216.3082 243.4006  1.00262956 25790
COSMOS 2539             
1 44457U 19048A   26181.37504098  .00000092  00000+0  00000+0 0  9999
2 44457   0.0360  92.1207 0000508 342.4150 350.9164  1.00273837 25352
EDRS-C                  
1 44475U 19049A   26181.51919843 -.00000251  00000+0  00000+0 0  9992
2 44475   0.0182  92.0117 0001294  20.1364 135.8510  1.00274617 25344
INTELSAT 39 (IS-39)     
1 44476U 19049B   26180.87605734  .00000000  00000+0  00000+0 0  9993
2 44476   0.0235  15.0802 0000785 336.7209 303.4894  1.00271871 25255
AMOS-17                 
1 44479U 19050A   26181.51844742  .00000120  00000+0  00000+0 0  9997
2 44479   0.0198 333.6632 0002337 154.7273 353.8364  1.00273646 25321
AEHF-5 (USA 292)        
1 44481U 19051A   26181.46228366 -.00000245  00000+0  00000+0 0  9992
2 44481   1.4423 337.2015 0065648 359.5058 201.3260  1.00270270 25394
EUTELSAT 5 WEST B       
1 44624U 19067A   26180.65878699 -.00000031  00000+0  00000+0 0  9991
2 44624   0.0630 348.0468 0003476 109.6346  52.2130  1.00271657 24562
MEV-1                   
1 44625U 19067B   26167.92963140 -.00000149  00000+0  00000+0 0  9993
2 44625   0.8740 268.9828 0002794 179.8034 307.2103  1.00269616 61744
TJS-4                   
1 44637U 19070A   26180.89017699 -.00000159  00000+0  00000+0 0  9991
2 44637   0.0481  85.7099 0004173 321.5802 274.6878  1.00272804 24667
TIBA-1                  
1 44800U 19080A   26181.52229056  .00000166  00000+0  00000+0 0  9994
2 44800   0.0519  12.8283 0002290  93.5223  35.7530  1.00270756 24191
INMARSAT GX5            
1 44801U 19080B   26181.51740741  .00000086  00000+0  00000+0 0  9994
2 44801   0.0343 353.6676 0002313 103.0728  19.1231  1.00274488  6923
JCSAT-18 (KACIFIC 1)    
1 44868U 19091A   26181.56042546 -.00000190  00000+0  00000+0 0  9999
2 44868   0.0497 208.0373 0000169 250.9898 171.3565  1.00271267 24147
